{"type": "FeatureCollection", "features": [ {"type": "Feature", "properties": {"norad_id": 41836, "name": "HIMAWARI-9", "group": "weather", "lat": -0.00341482543060892, "lon": 34.19347044970607, "alt_km": 35787.6569525662, "timestamp": "2025-12-27T10:28:58.433107+00:00", "meta": {"OBJECT_NAME": "HIMAWARI-9", "OBJECT_ID": "2016-064A", "EPOCH": "2025-12-27T00:52:38.599104", "MEAN_MOTION": 1.00270173, "ECCENTRICITY": 8.96e-05, "INCLINATION": 0.0131, "RA_OF_ASC_NODE": 83.7635, "ARG_OF_PERICENTER": 204.0016, "MEAN_ANOMALY": 321.9511, "EPHEMERIS_TYPE": 0, "CLASSIFICATION_TYPE": "U", "NORAD_CAT_ID": 41836, "ELEMENT_SET_NO": 999, "REV_AT_EPOCH": 3348, "BSTAR": 0, "MEAN_MOTION_DOT": -2.53e-06, "MEAN_MOTION_DDOT": 0}, "tle": {"line1": "1 41836U 16064A   25361.03655786 -.00000253  00000+0  00000+0 0  9995", "line2": "2 41836   0.0131  83.7635 0000896 204.0016 321.9511  1.00270173 33488"}}, "geometry": {"type": "Point", "coordinates": [34.19347044970607, -0.00341482543060892]}}, {"type": "Feature", "properties": {"norad_id": 41866, "name": "GOES 16", "group": "weather", "lat": 0.07061369154149805, "lon": 148.70972501501763, "alt_km": 35793.030826763184, "timestamp": "2025-12-27T10:28:58.433127+00:00", "meta": {"OBJECT_NAME": "GOES 16", "OBJECT_ID": "2016-071A", "EPOCH": "2025-12-27T04:27:00.371808", "MEAN_MOTION": 1.00271577, "ECCENTRICITY": 0.0003296, "INCLINATION": 0.0809, "RA_OF_ASC_NODE": 100.6164, "ARG_OF_PERICENTER": 167.6787, "MEAN_ANOMALY": 149.7154, "EPHEMERIS_TYPE": 0, "CLASSIFICATION_TYPE": "U", "NORAD_CAT_ID": 41866, "ELEMENT_SET_NO": 999, "REV_AT_EPOCH": 3337, "BSTAR": 0, "MEAN_MOTION_DOT": -6.9e-07, "MEAN_MOTION_DDOT": 0}, "tle": {"line1": "1 41866U 16071A   25361.18542097 -.00000069  00000+0  00000+0 0  9997", "line2": "2 41866   0.0809 100.6164 0003296 167.6787 149.7154  1.00271577 33371"}}, "geometry": {"type": "Point", "coordinates": [148.70972501501763, 0.07061369154149805]}}, {"type": "Feature", "properties": {"norad_id": 41882, "name": "FENGYUN 4A", "group": "weather", "lat": -1.7096954816129752, "lon": 16.97584098342906, "alt_km": 35805.86205350615, "timestamp": "2025-12-27T10:28:58.433151+00:00", "meta": {"OBJECT_NAME": "FENGYUN 4A", "OBJECT_ID": "2016-077A", "EPOCH": "2025-12-26T09:22:21.494784", "MEAN_MOTION": 1.00262391, "ECCENTRICITY": 0.0004534, "INCLINATION": 1.8816, "RA_OF_ASC_NODE": 82.2577, "ARG_OF_PERICENTER": 143.1389, "MEAN_ANOMALY": 133.8992, "EPHEMERIS_TYPE": 0, "CLASSIFICATION_TYPE": "U", "NORAD_CAT_ID": 41882, "ELEMENT_SET_NO": 999, "REV_AT_EPOCH": 3319, "BSTAR": 0, "MEAN_MOTION_DOT": -3.36e-06, "MEAN_MOTION_DDOT": 0}, "tle": {"line1": "1 41882U 16077A   25360.39052656 -.00000336  00000+0  00000+0 0  9997", "line2": "2 41882   1.8816  82.2577 0004534 143.1389 133.8992  1.00262391 33190"}}, "geometry": {"type": "Point", "coordinates": [16.97584098342906, -1.7096954816129752]}}, {"type": "Feature", "properties": {"norad_id": 41884, "name": "CYGFM05", "group": "weather", "lat": -21.99791097612594, "lon": -84.23637044554364, "alt_km": 416.3133249533903, "timestamp": "2025-12-27T10:28:58.433168+00:00", "meta": {"OBJECT_NAME": "CYGFM05", "OBJECT_ID": "2016-078A", "EPOCH": "2025-12-27T04:28:04.537632", "MEAN_MOTION": 15.48195074, "ECCENTRICITY": 0.0010291, "INCLINATION": 34.96, "RA_OF_ASC_NODE": 312.7275, "ARG_OF_PERICENTER": 307.1889, "MEAN_ANOMALY": 52.7893, "EPHEMERIS_TYPE": 0, "CLASSIFICATION_TYPE": "U", "NORAD_CAT_ID": 41884, "ELEMENT_SET_NO": 999, "REV_AT_EPOCH": 50200, "BSTAR": 0.00044895, "MEAN_MOTION_DOT": 0.0002443, "MEAN_MOTION_DDOT": 0}, "tle": {"line1": "1 41884U 16078A   25361.18616363  .00024430  00000+0  44895-3 0  9993", "line2": "2 41884  34.9600 312.7275 0010291 307.1889  52.7893 15.48195074502000"}}, "geometry": {"type": "Point", "coordinates": [-84.23637044554364, -21.99791097612594]}}, {"type": "Feature", "properties": {"norad_id": 41885, "name": "CYGFM04", "group": "weather", "lat": -8.352888653167145, "lon": -86.70775304713165, "alt_km": 407.8174048677138, "timestamp": "2025-12-27T10:28:58.433185+00:00", "meta": {"OBJECT_NAME": "CYGFM04", "OBJECT_ID": "2016-078B", "EPOCH": "2025-12-27T02:49:19.249824", "MEAN_MOTION": 15.50994926, "ECCENTRICITY": 0.0008788, "INCLINATION": 34.9346, "RA_OF_ASC_NODE": 287.5315, "ARG_OF_PERICENTER": 331.5011, "MEAN_ANOMALY": 28.523, "EPHEMERIS_TYPE": 0, "CLASSIFICATION_TYPE": "U", "NORAD_CAT_ID": 41885, "ELEMENT_SET_NO": 999, "REV_AT_EPOCH": 50217, "BSTAR": 0.00044934, "MEAN_MOTION_DOT": 0.00026999, "MEAN_MOTION_DDOT": 0}, "tle": {"line1": "1 41885U 16078B   25361.11758391  .00026999  00000+0  44934-3 0  9991", "line2": "2 41885  34.9346 287.5315 0008788 331.5011  28.5230 15.50994926502178"}}, "geometry": {"type": "Point", "coordinates": [-86.70775304713165, -8.352888653167145]}}, {"type": "Feature", "properties": {"norad_id": 41886, "name": "CYGFM02", "group": "weather", "lat": 33.17353186628488, "lon": -7.001054633239763, "alt_km": 404.217171751543, "timestamp": "2025-12-27T10:28:58.433202+00:00", "meta": {"OBJECT_NAME": "CYGFM02", "OBJECT_ID": "2016-078C", "EPOCH": "2025-12-27T03:59:50.972352", "MEAN_MOTION": 15.5242311, "ECCENTRICITY": 0.0010354, "INCLINATION": 34.9434, "RA_OF_ASC_NODE": 285.3465, "ARG_OF_PERICENTER": 333.9201, "MEAN_ANOMALY": 26.0999, "EPHEMERIS_TYPE": 0, "CLASSIFICATION_TYPE": "U", "NORAD_CAT_ID": 41886, "ELEMENT_SET_NO": 999, "REV_AT_EPOCH": 50231, "BSTAR": 0.00045944, "MEAN_MOTION_DOT": 0.0002909, "MEAN_MOTION_DDOT": 0}, "tle": {"line1": "1 41886U 16078C   25361.16656218  .00029090  00000+0  45944-3 0  9999", "line2": "2 41886  34.9434 285.3465 0010354 333.9201  26.0999 15.52423110502313"}}, "geometry": {"type": "Point", "coordinates": [-7.001054633239763, 33.17353186628488]}}, {"type": "Feature", "properties": {"norad_id": 41887, "name": "CYGFM01", "group": "weather", "lat": 19.0420065054172, "lon": -17.041527183956518, "alt_km": 416.66735396568856, "timestamp": "2025-12-27T10:28:58.433218+00:00", "meta": {"OBJECT_NAME": "CYGFM01", "OBJECT_ID": "2016-078D", "EPOCH": "2025-12-27T04:08:44.941632", "MEAN_MOTION": 15.48790077, "ECCENTRICITY": 0.0010091, "INCLINATION": 34.9433, "RA_OF_ASC_NODE": 315.062, "ARG_OF_PERICENTER": 299.465, "MEAN_ANOMALY": 60.5065, "EPHEMERIS_TYPE": 0, "CLASSIFICATION_TYPE": "U", "NORAD_CAT_ID": 41887, "ELEMENT_SET_NO": 999, "REV_AT_EPOCH": 50194, "BSTAR": 0.00043516, "MEAN_MOTION_DOT": 0.00024178, "MEAN_MOTION_DDOT": 0}, "tle": {"line1": "1 41887U 16078D   25361.17274238  .00024178  00000+0  43516-3 0  9994", "line2": "2 41887  34.9433 315.0620 0010091 299.4650  60.5065 15.48790077501948"}}, "geometry": {"type": "Point", "coordinates": [-17.041527183956518, 19.0420065054172]}}, {"type": "Feature", "properties": {"norad_id": 41888, "name": "CYGFM08", "group": "weather", "lat": 17.565716954479562, "lon": 89.19368074666878, "alt_km": 420.4916764468344, "timestamp": "2025-12-27T10:28:58.433235+00:00", "meta": {"OBJECT_NAME": "CYGFM08", "OBJECT_ID": "2016-078E", "EPOCH": "2025-12-27T03:39:50.071968", "MEAN_MOTION": 15.50034752, "ECCENTRICITY": 0.0011163, "INCLINATION": 34.9459, "RA_OF_ASC_NODE": 298.0141, "ARG_OF_PERICENTER": 323.1952, "MEAN_ANOMALY": 36.8003, "EPHEMERIS_TYPE": 0, "CLASSIFICATION_TYPE": "U", "NORAD_CAT_ID": 41888, "ELEMENT_SET_NO": 999, "REV_AT_EPOCH": 50217, "BSTAR": 0.00045658, "MEAN_MOTION_DOT": 0.00026534, "MEAN_MOTION_DDOT": 0}, "tle": {"line1": "1 41888U 16078E   25361.15266287  .00026534  00000+0  45658-3 0  9995", "line2": "2 41888  34.9459 298.0141 0011163 323.1952  36.8003 15.50034752502174"}}, "geometry": {"type": "Point", "coordinates": [89.19368074666878, 17.565716954479562]}}, {"type": "Feature", "properties": {"norad_id": 41890, "name": "CYGFM07", "group": "weather", "lat": 7.273326359540264, "lon": 94.51801908364754, "alt_km": 418.774470735033, "timestamp": "2025-12-27T10:28:58.433251+00:00", "meta": {"OBJECT_NAME": "CYGFM07", "OBJECT_ID": "2016-078G", "EPOCH": "2025-12-27T03:35:06.057024", "MEAN_MOTION": 15.50632394, "ECCENTRICITY": 0.0008969, "INCLINATION": 34.9473, "RA_OF_ASC_NODE": 286.9349, "ARG_OF_PERICENTER": 338.1364, "MEAN_ANOMALY": 21.8975, "EPHEMERIS_TYPE": 0, "CLASSIFICATION_TYPE": "U", "NORAD_CAT_ID": 41890, "ELEMENT_SET_NO": 999, "REV_AT_EPOCH": 50219, "BSTAR": 0.00044686, "MEAN_MOTION_DOT": 0.00026503, "MEAN_MOTION_DDOT": 0}, "tle": {"line1": "1 41890U 16078G   25361.14937566  .00026503  00000+0  44686-3 0  9998", "line2": "2 41890  34.9473 286.9349 0008969 338.1364  21.8975 15.50632394502192"}}, "geometry": {"type": "Point", "coordinates": [94.51801908364754, 7.273326359540264]}}, {"type": "Feature", "properties": {"norad_id": 41891, "name": "CYGFM03", "group": "weather", "lat": -2.07861223430426, "lon": -76.00306593576428, "alt_km": 409.05964210065486, "timestamp": "2025-12-27T10:28:58.433267+00:00", "meta": {"OBJECT_NAME": "CYGFM03", "OBJECT_ID": "2016-078H", "EPOCH": "2025-12-27T04:19:02.954784", "MEAN_MOTION": 15.50526979, "ECCENTRICITY": 0.0008857, "INCLINATION": 34.9429, "RA_OF_ASC_NODE": 288.6623, "ARG_OF_PERICENTER": 324.6676, "MEAN_ANOMALY": 35.3458, "EPHEMERIS_TYPE": 0, "CLASSIFICATION_TYPE": "U", "NORAD_CAT_ID": 41891, "ELEMENT_SET_NO": 999, "REV_AT_EPOCH": 50217, "BSTAR": 0.00045233, "MEAN_MOTION_DOT": 0.00026727, "MEAN_MOTION_DDOT": 0}, "tle": {"line1": "1 41891U 16078H   25361.17989531  .00026727  00000+0  45233-3 0  9998", "line2": "2 41891  34.9429 288.6623 0008857 324.6676  35.3458 15.50526979502175"}}, "geometry": {"type": "Point", "coordinates": [-76.00306593576428, -2.07861223430426]}}]}